ONEWEB-0199             
1 48234U 21031AA  25143.91897429  .00000258  00000+0  66144-3 0  9990
2 48234  87.9054   7.1308 0001669  81.3845 278.7474 13.14501122197125
ONEWEB-0203             
1 48235U 21031AB  25143.68109576  .00000284  00000+0  73173-3 0  9993
2 48235  87.9052   7.1807 0001605  91.5237 268.6076 13.14506563197104
ONEWEB-0197             
1 48236U 21031AC  25143.88488526 -.00000177  00000+0 -51228-3 0  9991
2 48236  87.9042   7.1476 0001970  75.5461 284.5887 13.14501602197041
ONEWEB-0194             
1 48237U 21031AD  25144.54854339  .00000026  00000+0  35550-4 0  9997
2 48237  87.9057   7.0158 0001533  84.2523 275.8782 13.14503190197305
ONEWEB-0193             
1 48238U 21031AE  25144.03157090 -.00000164  00000+0 -47572-3 0  9993
2 48238  87.9055   7.1263 0001751  89.3063 270.8267 13.14503960197183
ONEWEB-0191             
1 48239U 21031AF  25143.66208714 -.00000046  00000+0 -15871-3 0  9998
2 48239  87.9050   7.1730 0001590  90.8892 269.2420 13.14503424196992
ONEWEB-0195             
1 48240U 21031AG  25144.32413870 -.00000101  00000+0 -30761-3 0  9992
2 48240  87.9053   7.0392 0002061  93.9962 266.1403 13.14501252197069
ONEWEB-0201             
1 48241U 21031AH  25143.85567653  .00000091  00000+0  20987-3 0  9994
2 48241  87.9058   7.1779 0002056  83.7647 276.3717 13.14504311197235
